IRIDIUM 57 [-]          
1 25273U 98019B   23344.91367694  .00000304  00000+0  99802-4 0  9995
2 25273  86.3972  17.3729 0002199  93.1085 267.0363 14.35011814345278
IRIDIUM 63 [-]          
1 25286U 98021B   23344.93728699  .00000357  00000+0  11725-3 0  9995
2 25286  86.3966 314.3000 0002057  89.5891 270.5542 14.35521247344301
IRIDIUM 69 [-]          
1 25319U 98026A   23345.48816029  .00000352  00000+0  10603-3 0  9992
2 25319  86.3972 329.0090 0004201  69.4469 290.7181 14.39702149343609
IRIDIUM 71 [-]          
1 25320U 98026B   23344.90499892  .00000371  00000+0  11135-3 0  9997
2 25320  86.3963 324.0664 0004286 101.9082 258.2597 14.40025899343791
IRIDIUM 73 [-]          
1 25344U 98032C   23345.33101079  .00000515  00000+0  12741-3 0  9999
2 25344  86.4409 281.5976 0002950  81.2990 278.8549 14.50182728350553
IRIDIUM 82 [-]          
1 25467U 98051A   23344.60314583  .00006760  00000+0  38304-3 0  9992
2 25467  86.3944  15.0902 0142398 192.7467 167.0156 15.04472630339935
IRIDIUM 2 [-]           
1 25527U 98066A   23344.67976821  .00028619  00000+0  55375-3 0  9995
2 25527  85.5188  63.5514 0003251 349.6354  10.4835 15.47596341378337
